{"type": "FeatureCollection", "features": [ {"type": "Feature", "properties": {"norad_id": 35718, "name": "COSMOS 2251 DEB", "group": "cosmos-2251-debris", "lat": -27.406113806058606, "lon": -21.28937065805342, "alt_km": 663.238469798177, "timestamp": "2025-12-02T07:10:09.512916+00:00", "meta": {"OBJECT_NAME": "COSMOS 2251 DEB", "OBJECT_ID": "1993-036AQP", "EPOCH": "2025-11-28T18:49:36.496416", "MEAN_MOTION": 14.68279459, "ECCENTRICITY": 0.00123436, "INCLINATION": 74.0315, "RA_OF_ASC_NODE": 156.9668, "ARG_OF_PERICENTER": 206.7375, "MEAN_ANOMALY": 153.316, "EPHEMERIS_TYPE": 0, "CLASSIFICATION_TYPE": "U", "NORAD_CAT_ID": 35718, "ELEMENT_SET_NO": 999, "REV_AT_EPOCH": 65635, "BSTAR": 0.0013999458, "MEAN_MOTION_DOT": 8.062e-05, "MEAN_MOTION_DDOT": 0}, "tle": {"line1": "1 35718U 93036AQP 25332.78445019  .00008062  00000+0  13999-2 0  9996", "line2": "2 35718  74.0315 156.9668 0012343 206.7375 153.3160 14.68279459656359"}}, "geometry": {"type": "Point", "coordinates": [-21.28937065805342, -27.406113806058606]}}, {"type": "Feature", "properties": {"norad_id": 35721, "name": "COSMOS 2251 DEB", "group": "cosmos-2251-debris", "lat": 68.8017865265098, "lon": -115.11375645953568, "alt_km": 770.163478790445, "timestamp": "2025-12-02T07:10:09.512928+00:00", "meta": {"OBJECT_NAME": "COSMOS 2251 DEB", "OBJECT_ID": "1993-036AQS", "EPOCH": "2025-11-29T21:54:16.243200", "MEAN_MOTION": 14.34192363, "ECCENTRICITY": 0.01464404, "INCLINATION": 73.9503, "RA_OF_ASC_NODE": 201.3539, "ARG_OF_PERICENTER": 350.3358, "MEAN_ANOMALY": 9.498, "EPHEMERIS_TYPE": 0, "CLASSIFICATION_TYPE": "U", "NORAD_CAT_ID": 35721, "ELEMENT_SET_NO": 999, "REV_AT_EPOCH": 57605, "BSTAR": 0.0014885779, "MEAN_MOTION_DOT": 4.68e-05, "MEAN_MOTION_DDOT": 0}, "tle": {"line1": "1 35721U 93036AQS 25333.91268800  .00004680  00000+0  14886-2 0  9995", "line2": "2 35721  73.9503 201.3539 0146440 350.3358   9.4980 14.34192363576055"}}, "geometry": {"type": "Point", "coordinates": [-115.11375645953568, 68.8017865265098]}}, {"type": "Feature", "properties": {"norad_id": 35724, "name": "COSMOS 2251 DEB", "group": "cosmos-2251-debris", "lat": -19.501280915712922, "lon": 148.37295371758935, "alt_km": 697.00499690982, "timestamp": "2025-12-02T07:10:09.512938+00:00", "meta": {"OBJECT_NAME": "COSMOS 2251 DEB", "OBJECT_ID": "1993-036AQV", "EPOCH": "2025-11-30T08:09:18.426240", "MEAN_MOTION": 14.58149733, "ECCENTRICITY": 0.00590888, "INCLINATION": 74.0317, "RA_OF_ASC_NODE": 326.2795, "ARG_OF_PERICENTER": 123.6188, "MEAN_ANOMALY": 237.0635, "EPHEMERIS_TYPE": 0, "CLASSIFICATION_TYPE": "U", "NORAD_CAT_ID": 35724, "ELEMENT_SET_NO": 999, "REV_AT_EPOCH": 87348, "BSTAR": 0.00024156118, "MEAN_MOTION_DOT": 1.11e-05, "MEAN_MOTION_DDOT": 0}, "tle": {"line1": "1 35724U 93036AQV 25334.33979660  .00001110  00000+0  24156-3 0  9995", "line2": "2 35724  74.0317 326.2795 0059088 123.6188 237.0635 14.58149733873489"}}, "geometry": {"type": "Point", "coordinates": [148.37295371758935, -19.501280915712922]}}, {"type": "Feature", "properties": {"norad_id": 35759, "name": "COSMOS 2251 DEB", "group": "cosmos-2251-debris", "lat": 13.175459749580007, "lon": 52.28298763928345, "alt_km": 731.5526033474953, "timestamp": "2025-12-02T07:10:09.512948+00:00", "meta": {"OBJECT_NAME": "COSMOS 2251 DEB", "OBJECT_ID": "1993-036ARD", "EPOCH": "2025-11-30T11:47:50.600832", "MEAN_MOTION": 14.6481819, "ECCENTRICITY": 0.00766386, "INCLINATION": 74.0382, "RA_OF_ASC_NODE": 239.5982, "ARG_OF_PERICENTER": 0.7246, "MEAN_ANOMALY": 359.4018, "EPHEMERIS_TYPE": 0, "CLASSIFICATION_TYPE": "U", "NORAD_CAT_ID": 35759, "ELEMENT_SET_NO": 999, "REV_AT_EPOCH": 65956, "BSTAR": 0.00039328747, "MEAN_MOTION_DOT": 2.159e-05, "MEAN_MOTION_DDOT": 0}, "tle": {"line1": "1 35759U 93036ARD 25334.49155788  .00002159  00000+0  39329-3 0  9999", "line2": "2 35759  74.0382 239.5982 0076638   0.7246 359.4018 14.64818190659565"}}, "geometry": {"type": "Point", "coordinates": [52.28298763928345, 13.175459749580007]}}, {"type": "Feature", "properties": {"norad_id": 35771, "name": "COSMOS 2251 DEB", "group": "cosmos-2251-debris", "lat": -38.162972698202225, "lon": -44.225341214162164, "alt_km": 747.0695528691322, "timestamp": "2025-12-02T07:10:09.512959+00:00", "meta": {"OBJECT_NAME": "COSMOS 2251 DEB", "OBJECT_ID": "1993-036ARR", "EPOCH": "2025-11-29T09:40:57.588384", "MEAN_MOTION": 14.12842281, "ECCENTRICITY": 0.0232386, "INCLINATION": 74.1545, "RA_OF_ASC_NODE": 333.7556, "ARG_OF_PERICENTER": 275.1595, "MEAN_ANOMALY": 82.3065, "EPHEMERIS_TYPE": 0, "CLASSIFICATION_TYPE": "U", "NORAD_CAT_ID": 35771, "ELEMENT_SET_NO": 999, "REV_AT_EPOCH": 82672, "BSTAR": 0.0058185271, "MEAN_MOTION_DOT": 0.00013983, "MEAN_MOTION_DDOT": 0}, "tle": {"line1": "1 35771U 93036ARR 25333.40344431  .00013983  00000+0  58185-2 0  9995", "line2": "2 35771  74.1545 333.7556 0232386 275.1595  82.3065 14.12842281826723"}}, "geometry": {"type": "Point", "coordinates": [-44.225341214162164, -38.162972698202225]}}, {"type": "Feature", "properties": {"norad_id": 35773, "name": "COSMOS 2251 DEB", "group": "cosmos-2251-debris", "lat": 22.199952759363775, "lon": 174.12551688637862, "alt_km": 653.7943634600151, "timestamp": "2025-12-02T07:10:09.512969+00:00", "meta": {"OBJECT_NAME": "COSMOS 2251 DEB", "OBJECT_ID": "1993-036ART", "EPOCH": "2025-12-01T12:23:23.322624", "MEAN_MOTION": 14.61967326, "ECCENTRICITY": 0.00461855, "INCLINATION": 74.0083, "RA_OF_ASC_NODE": 2.3461, "ARG_OF_PERICENTER": 165.473, "MEAN_ANOMALY": 194.7777, "EPHEMERIS_TYPE": 0, "CLASSIFICATION_TYPE": "U", "NORAD_CAT_ID": 35773, "ELEMENT_SET_NO": 999, "REV_AT_EPOCH": 86675, "BSTAR": 0.00054588227, "MEAN_MOTION_DOT": 2.747e-05, "MEAN_MOTION_DDOT": 0}, "tle": {"line1": "1 35773U 93036ART 25335.51624216  .00002747  00000+0  54588-3 0  9993", "line2": "2 35773  74.0083   2.3461 0046185 165.4730 194.7777 14.61967326866754"}}, "geometry": {"type": "Point", "coordinates": [174.12551688637862, 22.199952759363775]}}, {"type": "Feature", "properties": {"norad_id": 35777, "name": "COSMOS 2251 DEB", "group": "cosmos-2251-debris", "lat": 10.961896731327982, "lon": 156.19206585411644, "alt_km": 961.7402097495324, "timestamp": "2025-12-02T07:10:09.512979+00:00", "meta": {"OBJECT_NAME": "COSMOS 2251 DEB", "OBJECT_ID": "1993-036ARX", "EPOCH": "2025-12-01T07:04:38.832096", "MEAN_MOTION": 13.41285825, "ECCENTRICITY": 0.045284, "INCLINATION": 73.7711, "RA_OF_ASC_NODE": 341.029, "ARG_OF_PERICENTER": 237.5027, "MEAN_ANOMALY": 130.3294, "EPHEMERIS_TYPE": 0, "CLASSIFICATION_TYPE": "U", "NORAD_CAT_ID": 35777, "ELEMENT_SET_NO": 999, "REV_AT_EPOCH": 79531, "BSTAR": 0.000761, "MEAN_MOTION_DOT": 7.5e-06, "MEAN_MOTION_DDOT": 0}, "tle": {"line1": "1 35777U 93036ARX 25335.29489389  .00000750  00000+0  76100-3 0  9998", "line2": "2 35777  73.7711 341.0290 0452840 237.5027 130.3294 13.41285825795311"}}, "geometry": {"type": "Point", "coordinates": [156.19206585411644, 10.961896731327982]}}, {"type": "Feature", "properties": {"norad_id": 35784, "name": "COSMOS 2251 DEB", "group": "cosmos-2251-debris", "lat": -72.82538325669925, "lon": -2.842379727315878, "alt_km": 704.8029754585195, "timestamp": "2025-12-02T07:10:09.512989+00:00", "meta": {"OBJECT_NAME": "COSMOS 2251 DEB", "OBJECT_ID": "1993-036ASE", "EPOCH": "2025-11-30T02:37:28.354944", "MEAN_MOTION": 14.49985321, "ECCENTRICITY": 0.00421284, "INCLINATION": 74.0362, "RA_OF_ASC_NODE": 113.4211, "ARG_OF_PERICENTER": 246.5375, "MEAN_ANOMALY": 113.1355, "EPHEMERIS_TYPE": 0, "CLASSIFICATION_TYPE": "U", "NORAD_CAT_ID": 35784, "ELEMENT_SET_NO": 999, "REV_AT_EPOCH": 65523, "BSTAR": 0.00039422851, "MEAN_MOTION_DOT": 1.515e-05, "MEAN_MOTION_DDOT": 0}, "tle": {"line1": "1 35784U 93036ASE 25334.10935596  .00001515  00000+0  39423-3 0  9998", "line2": "2 35784  74.0362 113.4211 0042128 246.5375 113.1355 14.49985321655239"}}, "geometry": {"type": "Point", "coordinates": [-2.842379727315878, -72.82538325669925]}}, {"type": "Feature", "properties": {"norad_id": 35786, "name": "COSMOS 2251 DEB", "group": "cosmos-2251-debris", "lat": -58.76738333281008, "lon": 35.70498170002582, "alt_km": 685.393258271396, "timestamp": "2025-12-02T07:10:09.512999+00:00", "meta": {"OBJECT_NAME": "COSMOS 2251 DEB", "OBJECT_ID": "1993-036ASG", "EPOCH": "2025-11-30T16:08:59.063712", "MEAN_MOTION": 14.65989058, "ECCENTRICITY": 0.00351749, "INCLINATION": 74.0143, "RA_OF_ASC_NODE": 67.0519, "ARG_OF_PERICENTER": 199.4194, "MEAN_ANOMALY": 160.5637, "EPHEMERIS_TYPE": 0, "CLASSIFICATION_TYPE": "U", "NORAD_CAT_ID": 35786, "ELEMENT_SET_NO": 999, "REV_AT_EPOCH": 73231, "BSTAR": 0.0013382716, "MEAN_MOTION_DOT": 7.375e-05, "MEAN_MOTION_DDOT": 0}, "tle": {"line1": "1 35786U 93036ASG 25334.67290583  .00007375  00000+0  13383-2 0  9998", "line2": "2 35786  74.0143  67.0519 0035174 199.4194 160.5637 14.65989058732314"}}, "geometry": {"type": "Point", "coordinates": [35.70498170002582, -58.76738333281008]}}, {"type": "Feature", "properties": {"norad_id": 35789, "name": "COSMOS 2251 DEB", "group": "cosmos-2251-debris", "lat": 39.9914822808378, "lon": -42.57273822341855, "alt_km": 734.8848859449263, "timestamp": "2025-12-02T07:10:09.513009+00:00", "meta": {"OBJECT_NAME": "COSMOS 2251 DEB", "OBJECT_ID": "1993-036ASK", "EPOCH": "2025-11-30T08:09:35.692416", "MEAN_MOTION": 14.35969306, "ECCENTRICITY": 0.00469384, "INCLINATION": 74.039, "RA_OF_ASC_NODE": 307.1301, "ARG_OF_PERICENTER": 49.9649, "MEAN_ANOMALY": 310.5607, "EPHEMERIS_TYPE": 0, "CLASSIFICATION_TYPE": "U", "NORAD_CAT_ID": 35789, "ELEMENT_SET_NO": 999, "REV_AT_EPOCH": 61049, "BSTAR": 0.00014941887, "MEAN_MOTION_DOT": 4.13e-06, "MEAN_MOTION_DDOT": 0}, "tle": {"line1": "1 35789U 93036ASK 25334.33999644  .00000413  00000+0  14942-3 0  9997", "line2": "2 35789  74.0390 307.1301 0046938  49.9649 310.5607 14.35969306610491"}}, "geometry": {"type": "Point", "coordinates": [-42.57273822341855, 39.9914822808378]}}]}